<?xml version="1.0" encoding="UTF-8"?>
<gpx version="1.1" creator="Dia" xmlns="http://www.topografix.com/GPX/1/1">
  <metadata><name>Рача и Лечхуми 30.10–01.11.2026</name></metadata>
  <wpt lat="42.5194925" lon="43.1507112"><name>База — Амбролаури</name></wpt>
  <wpt lat="42.5572394" lon="43.0275289"><name>Баракони</name></wpt>
  <wpt lat="42.5418312" lon="43.2194445"><name>Шкмери</name></wpt>
  <wpt lat="42.4592505" lon="43.0881699"><name>Никорцминда</name></wpt>
  <wpt lat="42.4722048" lon="43.1435543"><name>Kesane — Forget Me Not</name></wpt>
  <wpt lat="42.4198785" lon="43.0784024"><name>Озеро Шаори</name></wpt>
  <wpt lat="42.3862857" lon="42.9711127"><name>Цхраджвари</name></wpt>
  <wpt lat="42.5388703" lon="43.1216715"><name>Margvelidze Winery</name></wpt>
  <wpt lat="42.5479799" lon="42.8689799"><name>Столбы Саирме</name></wpt>
  <wpt lat="42.6074135" lon="42.8600019"><name>Secret Pool (Лаилаши)</name></wpt>
  <wpt lat="42.5702513" lon="42.7974133"><name>Водопад Гвириши / Накуралеши</name></wpt>
  <wpt lat="42.5575939" lon="43.0264486"><name>Nika's Rachan Winery</name></wpt>
  <wpt lat="42.5008643" lon="42.7134704"><name>Гора Хвамли (Окуреши)</name></wpt>
  <wpt lat="42.2685321" lon="42.6981179"><name>Кутаиси — обед (Doli)</name></wpt>
</gpx>
